GENESIS 1               
1 29252U 06029A   23324.56811756  .00009630  00000+0  32964-3 0  9994
2 29252  64.5173 149.1227 0005522 223.9316 136.1375 15.30724233958428
ARIRANG-2 (KOMPSAT-2)   
1 29268U 06031A   23324.62289196  .00000326  00000+0  71851-4 0  9990
2 29268  97.8830 177.2928 0015011 165.6580 259.2165 14.63295768923992
EUTELSAT HOTBIRD 13B    
1 29270U 06032A   23324.54563431  .00000161  00000+0  00000+0 0  9992
2 29270   0.0630  33.9368 0004057 203.5794  51.3144  1.00271071 37882
JCSAT-3A                
1 29272U 06033A   23324.53250866 -.00000340  00000+0  00000+0 0  9999
2 29272   0.0467 102.2552 0002594 159.0977 117.6500  1.00268455 38312
SYRACUSE 3B             
1 29273U 06033B   23324.36438345 -.00000038  00000+0  00000+0 0  9995
2 29273   0.4797  92.0678 0005251 151.7071 301.3551  1.00270587 63286
KOREASAT 5 (MUGUNGWHA 5)
1 29349U 06034A   23324.55188100 -.00000353  00000+0  00000+0 0  9992
2 29349   0.0138 282.5726 0002054 320.1454 128.3304  1.00268246 31894
HINODE (SOLAR-B)        
1 29479U 06041A   23324.55083529  .00000684  00000+0  13390-3 0  9999
2 29479  98.1005 337.8040 0018691  27.1002 333.1173 14.65836112917069
NAVSTAR 58 (USA 190)    
1 29486U 06042A   23324.41456506  .00000055  00000+0  00000+0 0  9994
2 29486  54.6791 188.6006 0104682  34.8028 142.1490  2.00565905125548
DIRECTV 9S              
1 29494U 06043A   23324.48682174 -.00000108  00000+0  00000+0 0  9993
2 29494   0.0190 303.3274 0002945 293.1891 256.7969  1.00271819 41968
OPTUS D1                
1 29495U 06043B   23324.55257601 -.00000178  00000+0  00000+0 0  9992
2 29495   0.5990  91.0583 0003686 143.7365 175.4698  1.00269739 62692
SHIJIAN-6 02A (SJ-6 02A)
1 29505U 06046A   23324.54311855  .00003856  00000+0  31082-3 0  9991
2 29505  97.7362 347.3669 0007554 108.3600 251.8446 15.00478015930568
SHIJIAN-6 02B (SJ-6 02B)
1 29506U 06046B   23324.59159376  .00001342  00000+0  12450-3 0  9991
2 29506  97.7590 346.4483 0000696 306.7873  53.3284 14.96104036929973
XM-4 (BLUES)            
1 29520U 06049A   23324.54146701 -.00000245  00000+0  00000+0 0  9999
2 29520   0.3805  96.0201 0001866 217.7999 100.2703  0.98816195 42050
DMSP 5D-3 F17 (USA 191) 
1 29522U 06050A   23324.58257180  .00000174  00000+0  11390-3 0  9999
2 29522  98.7509 334.4560 0009393 212.4342 147.6255 14.14337027879564
BADR-4                  
1 29526U 06051A   23324.29719920  .00000151  00000+0  00000+0 0  9994
2 29526   0.0544 311.0142 0007622 321.8123 279.2340  1.00274172 62467
NAVSTAR 59 (USA 192)    
1 29601U 06052A   23324.09569825 -.00000018  00000+0  00000+0 0  9997
2 29601  55.2283 251.3224 0085074  79.6322 281.3466  2.00553611124557
WILDBLUE-1              
1 29643U 06054A   23324.48482020 -.00000043  00000+0  00000+0 0  9997
2 29643   0.3660  93.7628 0001596 136.3696 252.4780  1.00270679 44379
