[{"OBJECT_NAME":"GENESIS 1","OBJECT_ID":"2006-029A","EPOCH":"2023-11-20T13:38:05.357184","MEAN_MOTION":15.30724233,"ECCENTRICITY":0.0005522,"INCLINATION":64.5173,"RA_OF_ASC_NODE":149.1227,"ARG_OF_PERICENTER":223.9316,"MEAN_ANOMALY":136.1375,"EPHEMERIS_TYPE":0,"CLASSIFICATION_TYPE":"U","NORAD_CAT_ID":29252,"ELEMENT_SET_NO":999,"REV_AT_EPOCH":95842,"BSTAR":0.00032964,"MEAN_MOTION_DOT":9.63e-5,"MEAN_MOTION_DDOT":0},{"OBJECT_NAME":"ARIRANG-2 (KOMPSAT-2)","OBJECT_ID":"2006-031A","EPOCH":"2023-11-20T14:56:57.865344","MEAN_MOTION":14.63295768,"ECCENTRICITY":0.0015011,"INCLINATION":97.883,"RA_OF_ASC_NODE":177.2928,"ARG_OF_PERICENTER":165.658,"MEAN_ANOMALY":259.2165,"EPHEMERIS_TYPE":0,"CLASSIFICATION_TYPE":"U","NORAD_CAT_ID":29268,"ELEMENT_SET_NO":999,"REV_AT_EPOCH":92399,"BSTAR":7.1851e-5,"MEAN_MOTION_DOT":3.26e-6,"MEAN_MOTION_DDOT":0},{"OBJECT_NAME":"EUTELSAT HOTBIRD 13B","OBJECT_ID":"2006-032A","EPOCH":"2023-11-20T13:05:42.804384","MEAN_MOTION":1.00271071,"ECCENTRICITY":0.0004057,"INCLINATION":0.063,"RA_OF_ASC_NODE":33.9368,"ARG_OF_PERICENTER":203.5794,"MEAN_ANOMALY":51.3144,"EPHEMERIS_TYPE":0,"CLASSIFICATION_TYPE":"U","NORAD_CAT_ID":29270,"ELEMENT_SET_NO":999,"REV_AT_EPOCH":3788,"BSTAR":0,"MEAN_MOTION_DOT":1.61e-6,"MEAN_MOTION_DDOT":0},{"OBJECT_NAME":"JCSAT-3A","OBJECT_ID":"2006-033A","EPOCH":"2023-11-20T12:46:48.748224","MEAN_MOTION":1.00268455,"ECCENTRICITY":0.0002594,"INCLINATION":0.0467,"RA_OF_ASC_NODE":102.2552,"ARG_OF_PERICENTER":159.0977,"MEAN_ANOMALY":117.65,"EPHEMERIS_TYPE":0,"CLASSIFICATION_TYPE":"U","NORAD_CAT_ID":29272,"ELEMENT_SET_NO":999,"REV_AT_EPOCH":3831,"BSTAR":0,"MEAN_MOTION_DOT":-3.4e-6,"MEAN_MOTION_DDOT":0},{"OBJECT_NAME":"SYRACUSE 3B","OBJECT_ID":"2006-033B","EPOCH":"2023-11-20T08:44:42.730080","MEAN_MOTION":1.00270587,"ECCENTRICITY":0.0005251,"INCLINATION":0.4797,"RA_OF_ASC_NODE":92.0678,"ARG_OF_PERICENTER":151.7071,"MEAN_ANOMALY":301.3551,"EPHEMERIS_TYPE":0,"CLASSIFICATION_TYPE":"U","NORAD_CAT_ID":29273,"ELEMENT_SET_NO":999,"REV_AT_EPOCH":6328,"BSTAR":0,"MEAN_MOTION_DOT":-3.8e-7,"MEAN_MOTION_DDOT":0},{"OBJECT_NAME":"KOREASAT 5 (MUGUNGWHA 5)","OBJECT_ID":"2006-034A","EPOCH":"2023-11-20T13:14:42.518400","MEAN_MOTION":1.00268246,"ECCENTRICITY":0.0002054,"INCLINATION":0.0138,"RA_OF_ASC_NODE":282.5726,"ARG_OF_PERICENTER":320.1454,"MEAN_ANOMALY":128.3304,"EPHEMERIS_TYPE":0,"CLASSIFICATION_TYPE":"U","NORAD_CAT_ID":29349,"ELEMENT_SET_NO":999,"REV_AT_EPOCH":3189,"BSTAR":0,"MEAN_MOTION_DOT":-3.53e-6,"MEAN_MOTION_DDOT":0},{"OBJECT_NAME":"HINODE (SOLAR-B)","OBJECT_ID":"2006-041A","EPOCH":"2023-11-20T13:13:12.169056","MEAN_MOTION":14.65836112,"ECCENTRICITY":0.0018691,"INCLINATION":98.1005,"RA_OF_ASC_NODE":337.804,"ARG_OF_PERICENTER":27.1002,"MEAN_ANOMALY":333.1173,"EPHEMERIS_TYPE":0,"CLASSIFICATION_TYPE":"U","NORAD_CAT_ID":29479,"ELEMENT_SET_NO":999,"REV_AT_EPOCH":91706,"BSTAR":0.0001339,"MEAN_MOTION_DOT":6.84e-6,"MEAN_MOTION_DDOT":0},{"OBJECT_NAME":"NAVSTAR 58 (USA 190)","OBJECT_ID":"2006-042A","EPOCH":"2023-11-20T09:56:58.421184","MEAN_MOTION":2.00565905,"ECCENTRICITY":0.0104682,"INCLINATION":54.6791,"RA_OF_ASC_NODE":188.6006,"ARG_OF_PERICENTER":34.8028,"MEAN_ANOMALY":142.149,"EPHEMERIS_TYPE":0,"CLASSIFICATION_TYPE":"U","NORAD_CAT_ID":29486,"ELEMENT_SET_NO":999,"REV_AT_EPOCH":12554,"BSTAR":0,"MEAN_MOTION_DOT":5.5e-7,"MEAN_MOTION_DDOT":0},{"OBJECT_NAME":"DIRECTV 9S","OBJECT_ID":"2006-043A","EPOCH":"2023-11-20T11:41:01.398336","MEAN_MOTION":1.00271819,"ECCENTRICITY":0.0002945,"INCLINATION":0.019,"RA_OF_ASC_NODE":303.3274,"ARG_OF_PERICENTER":293.1891,"MEAN_ANOMALY":256.7969,"EPHEMERIS_TYPE":0,"CLASSIFICATION_TYPE":"U","NORAD_CAT_ID":29494,"ELEMENT_SET_NO":999,"REV_AT_EPOCH":4196,"BSTAR":0,"MEAN_MOTION_DOT":-1.08e-6,"MEAN_MOTION_DDOT":0},{"OBJECT_NAME":"OPTUS D1","OBJECT_ID":"2006-043B","EPOCH":"2023-11-20T13:15:42.567264","MEAN_MOTION":1.00269739,"ECCENTRICITY":0.0003686,"INCLINATION":0.599,"RA_OF_ASC_NODE":91.0583,"ARG_OF_PERICENTER":143.7365,"MEAN_ANOMALY":175.4698,"EPHEMERIS_TYPE":0,"CLASSIFICATION_TYPE":"U","NORAD_CAT_ID":29495,"ELEMENT_SET_NO":999,"REV_AT_EPOCH":6269,"BSTAR":0,"MEAN_MOTION_DOT":-1.78e-6,"MEAN_MOTION_DDOT":0},{"OBJECT_NAME":"SHIJIAN-6 02A (SJ-6 02A)","OBJECT_ID":"2006-046A","EPOCH":"2023-11-20T13:02:05.442720","MEAN_MOTION":15.00478015,"ECCENTRICITY":0.0007554,"INCLINATION":97.7362,"RA_OF_ASC_NODE":347.3669,"ARG_OF_PERICENTER":108.36,"MEAN_ANOMALY":251.8446,"EPHEMERIS_TYPE":0,"CLASSIFICATION_TYPE":"U","NORAD_CAT_ID":29505,"ELEMENT_SET_NO":999,"REV_AT_EPOCH":93056,"BSTAR":0.00031082,"MEAN_MOTION_DOT":3.856e-5,"MEAN_MOTION_DDOT":0},{"OBJECT_NAME":"SHIJIAN-6 02B (SJ-6 02B)","OBJECT_ID":"2006-046B","EPOCH":"2023-11-20T14:11:53.700864","MEAN_MOTION":14.96104036,"ECCENTRICITY":6.96e-5,"INCLINATION":97.759,"RA_OF_ASC_NODE":346.4483,"ARG_OF_PERICENTER":306.7873,"MEAN_ANOMALY":53.3284,"EPHEMERIS_TYPE":0,"CLASSIFICATION_TYPE":"U","NORAD_CAT_ID":29506,"ELEMENT_SET_NO":999,"REV_AT_EPOCH":92997,"BSTAR":0.0001245,"MEAN_MOTION_DOT":1.342e-5,"MEAN_MOTION_DDOT":0},{"OBJECT_NAME":"XM-4 (BLUES)","OBJECT_ID":"2006-049A","EPOCH":"2023-11-20T12:59:42.749664","MEAN_MOTION":0.98816195,"ECCENTRICITY":0.0001866,"INCLINATION":0.3805,"RA_OF_ASC_NODE":96.0201,"ARG_OF_PERICENTER":217.7999,"MEAN_ANOMALY":100.2703,"EPHEMERIS_TYPE":0,"CLASSIFICATION_TYPE":"U","NORAD_CAT_ID":29520,"ELEMENT_SET_NO":999,"REV_AT_EPOCH":4205,"BSTAR":0,"MEAN_MOTION_DOT":-2.45e-6,"MEAN_MOTION_DDOT":0},{"OBJECT_NAME":"DMSP 5D-3 F17 (USA 191)","OBJECT_ID":"2006-050A","EPOCH":"2023-11-20T13:58:54.203520","MEAN_MOTION":14.14337027,"ECCENTRICITY":0.0009393,"INCLINATION":98.7509,"RA_OF_ASC_NODE":334.456,"ARG_OF_PERICENTER":212.4342,"MEAN_ANOMALY":147.6255,"EPHEMERIS_TYPE":0,"CLASSIFICATION_TYPE":"U","NORAD_CAT_ID":29522,"ELEMENT_SET_NO":999,"REV_AT_EPOCH":87956,"BSTAR":0.0001139,"MEAN_MOTION_DOT":1.74e-6,"MEAN_MOTION_DDOT":0},{"OBJECT_NAME":"BADR-4","OBJECT_ID":"2006-051A","EPOCH":"2023-11-20T07:07:58.010880","MEAN_MOTION":1.00274172,"ECCENTRICITY":0.0007622,"INCLINATION":0.0544,"RA_OF_ASC_NODE":311.0142,"ARG_OF_PERICENTER":321.8123,"MEAN_ANOMALY":279.234,"EPHEMERIS_TYPE":0,"CLASSIFICATION_TYPE":"U","NORAD_CAT_ID":29526,"ELEMENT_SET_NO":999,"REV_AT_EPOCH":6246,"BSTAR":0,"MEAN_MOTION_DOT":1.51e-6,"MEAN_MOTION_DDOT":0},{"OBJECT_NAME":"NAVSTAR 59 (USA 192)","OBJECT_ID":"2006-052A","EPOCH":"2023-11-20T02:17:48.328800","MEAN_MOTION":2.00553611,"ECCENTRICITY":0.0085074,"INCLINATION":55.2283,"RA_OF_ASC_NODE":251.3224,"ARG_OF_PERICENTER":79.6322,"MEAN_ANOMALY":281.3466,"EPHEMERIS_TYPE":0,"CLASSIFICATION_TYPE":"U","NORAD_CAT_ID":29601,"ELEMENT_SET_NO":999,"REV_AT_EPOCH":12455,"BSTAR":0,"MEAN_MOTION_DOT":-1.8e-7,"MEAN_MOTION_DDOT":0},{"OBJECT_NAME":"WILDBLUE-1","OBJECT_ID":"2006-054A","EPOCH":"2023-11-20T11:38:08.465280","MEAN_MOTION":1.00270679,"ECCENTRICITY":0.0001596,"INCLINATION":0.366,"RA_OF_ASC_NODE":93.7628,"ARG_OF_PERICENTER":136.3696,"MEAN_ANOMALY":252.478,"EPHEMERIS_TYPE":0,"CLASSIFICATION_TYPE":"U","NORAD_CAT_ID":29643,"ELEMENT_SET_NO":999,"REV_AT_EPOCH":4437,"BSTAR":0,"MEAN_MOTION_DOT":-4.3e-7,"MEAN_MOTION_DDOT":0}]
